start=new Date('2022-05-08T00:00:00.000Z').valueOf();
sats=[{"ARG_OF_PERICENTER":"42.9569","OBJECT_TYPE":"PAYLOAD","REV_AT_EPOCH":"9347","RCS_SIZE":"LARGE","EPHEMERIS_TYPE":"0","BSTAR":"-0.00000572870000","TLE_LINE1":"1 46329U 20062E   22127.84180574 -.00000367  00000-0 -57287-5 0  9997","SEMIMAJOR_AXIS":"6925.369","MEAN_MOTION_DOT":"-0.00000367","COUNTRY_CODE":"US","ECCENTRICITY":"0.00021820","MEAN_ANOMALY":"317.1590","CENTER_NAME":"EARTH","OBJECT_ID":"2020-062E","FILE":"3434137","EPOCH":"2022-05-07T20:12:12.015936","TIME_SYSTEM":"UTC","PERIOD":"95.593","SITE":"AFETR","DECAY_DATE":null,"OBJECT_NAME":"STARLINK-1695","TLE_LINE2":"2 46329  53.0551 169.7566 0002182  42.9569 317.1590 15.06393334 93479","MEAN_ELEMENT_THEORY":"SGP4","MEAN_MOTION_DDOT":"0.0000000000000","INCLINATION":"53.0551","RA_OF_ASC_NODE":"169.7566","NORAD_CAT_ID":"46329","ELEMENT_SET_NO":"999","CLASSIFICATION_TYPE":"U","REF_FRAME":"TEME","GP_ID":"202932743","PERIAPSIS":"545.723","MEAN_MOTION":"15.06393334","LAUNCH_DATE":"2020-09-03","APOAPSIS":"548.745"},{"RA_OF_ASC_NODE":"169.7987","INCLINATION":"53.0538","MEAN_MOTION_DDOT":"0.0000000000000","MEAN_ELEMENT_THEORY":"SGP4","TLE_LINE2":"2 46330  53.0538 169.7987 0001909  50.4199 309.6959 15.06398065 93305","OBJECT_NAME":"STARLINK-1710","DECAY_DATE":null,"SITE":"AFETR","APOAPSIS":"548.542","LAUNCH_DATE":"2020-09-03","MEAN_MOTION":"15.06398065","PERIAPSIS":"545.897","GP_ID":"202932797","CLASSIFICATION_TYPE":"U","REF_FRAME":"TEME","ELEMENT_SET_NO":"999","NORAD_CAT_ID":"46330","SEMIMAJOR_AXIS":"6925.354","TLE_LINE1":"1 46330U 20062F   22127.83073929  .00001144  00000-0  95667-4 0  9998","BSTAR":"0.00009566700000","EPHEMERIS_TYPE":"0","RCS_SIZE":"LARGE","REV_AT_EPOCH":"9330","OBJECT_TYPE":"PAYLOAD","ARG_OF_PERICENTER":"50.4199","PERIOD":"95.592","TIME_SYSTEM":"UTC","EPOCH":"2022-05-07T19:56:15.874656","FILE":"3434154","OBJECT_ID":"2020-062F","CENTER_NAME":"EARTH","ECCENTRICITY":"0.00019090","MEAN_ANOMALY":"309.6959","COUNTRY_CODE":"US","MEAN_MOTION_DOT":"0.00001144"},{"GP_ID":"202932329","REF_FRAME":"TEME","CLASSIFICATION_TYPE":"U","NORAD_CAT_ID":"46331","ELEMENT_SET_NO":"999","APOAPSIS":"548.297","MEAN_MOTION":"15.06388410","LAUNCH_DATE":"2020-09-03","PERIAPSIS":"546.201","TLE_LINE2":"2 46331  53.0533 190.5431 0001513  54.9727 305.1404 15.06388410 93178","MEAN_ELEMENT_THEORY":"SGP4","MEAN_MOTION_DDOT":"0.0000000000000","OBJECT_NAME":"STARLINK-1719","DECAY_DATE":null,"SITE":"AFETR","RA_OF_ASC_NODE":"190.5431","INCLINATION":"53.0533","CENTER_NAME":"EARTH","OBJECT_ID":"2020-062G","FILE":"3434143","COUNTRY_CODE":"US","ECCENTRICITY":"0.00015130","MEAN_ANOMALY":"305.1404","MEAN_MOTION_DOT":"-0.00000504","PERIOD":"95.593","TIME_SYSTEM":"UTC","EPOCH":"2022-05-07T16:00:04.336704","REV_AT_EPOCH":"9317","RCS_SIZE":"LARGE","OBJECT_TYPE":"PAYLOAD","ARG_OF_PERICENTER":"54.9727","TLE_LINE1":"1 46331U 20062G   22127.66671686 -.00000504  00000-0 -14914-4 0  9991","SEMIMAJOR_AXIS":"6925.384","EPHEMERIS_TYPE":"0","BSTAR":"-0.00001491400000"},{"CENTER_NAME":"EARTH","OBJECT_ID":"2020-062H","FILE":"3433971","MEAN_MOTION_DOT":"0.00000966","COUNTRY_CODE":"US","MEAN_ANOMALY":"309.7050","ECCENTRICITY":"0.00018450","PERIOD":"95.592","TIME_SYSTEM":"UTC","EPOCH":"2022-05-07T11:29:22.352352","REV_AT_EPOCH":"9296","RCS_SIZE":"LARGE","ARG_OF_PERICENTER":"50.4102","OBJECT_TYPE":"PAYLOAD","EPHEMERIS_TYPE":"0","BSTAR":"0.00008371300000","TLE_LINE1":"1 46332U 20062H   22127.47873093  .00000966  00000-0  83713-4 0  9990","SEMIMAJOR_AXIS":"6925.340","CLASSIFICATION_TYPE":"U","REF_FRAME":"TEME","GP_ID":"202923465","NORAD_CAT_ID":"46332","ELEMENT_SET_NO":"999","MEAN_MOTION":"15.06402668","LAUNCH_DATE":"2020-09-03","APOAPSIS":"548.483","PERIAPSIS":"545.928","DECAY_DATE":null,"OBJECT_NAME":"STARLINK-1721","TLE_LINE2":"2 46332  53.0556 191.3961 0001845  50.4102 309.7050 15.06402668 92962","MEAN_MOTION_DDOT":"0.0000000000000","MEAN_ELEMENT_THEORY":"SGP4","SITE":"AFETR","INCLINATION":"53.0556","RA_OF_ASC_NODE":"191.3961"},{"BSTAR":"0.00006882900000","EPHEMERIS_TYPE":"0","SEMIMAJOR_AXIS":"6925.332","TLE_LINE1":"1 46333U 20062J   22127.69250680  .00000744  00000-0  68829-4 0  9991","RCS_SIZE":"LARGE","REV_AT_EPOCH":"9317","ARG_OF_PERICENTER":"56.1699","OBJECT_TYPE":"PAYLOAD","PERIOD":"95.592","EPOCH":"2022-05-07T16:37:12.587520","TIME_SYSTEM":"UTC","OBJECT_ID":"2020-062J","FILE":"3434146","CENTER_NAME":"EARTH","MEAN_MOTION_DOT":"0.00000744","ECCENTRICITY":"0.00017860","MEAN_ANOMALY":"303.9460","COUNTRY_CODE":"US","INCLINATION":"53.0546","RA_OF_ASC_NODE":"190.4379","DECAY_DATE":null,"OBJECT_NAME":"STARLINK-1723","MEAN_ELEMENT_THEORY":"SGP4","MEAN_MOTION_DDOT":"0.0000000000000","TLE_LINE2":"2 46333  53.0546 190.4379 0001786  56.1699 303.9460 15.06405508 93174","SITE":"AFETR","LAUNCH_DATE":"2020-09-03","MEAN_MOTION":"15.06405508","APOAPSIS":"548.434","PERIAPSIS":"545.960","REF_FRAME":"TEME","CLASSIFICATION_TYPE":"U","GP_ID":"202932380","ELEMENT_SET_NO":"999","NORAD_CAT_ID":"46333"},{"TIME_SYSTEM":"UTC","EPOCH":"2022-05-07T12:50:16.491840","PERIOD":"95.592","MEAN_MOTION_DOT":"0.00000282","COUNTRY_CODE":"US","ECCENTRICITY":"0.00019990","MEAN_ANOMALY":"316.9228","CENTER_NAME":"EARTH","OBJECT_ID":"2020-062K","FILE":"3433971","EPHEMERIS_TYPE":"0","BSTAR":"0.00003785100000","TLE_LINE1":"1 46334U 20062K   22127.53491310  .00000282  00000-0  37851-4 0  9990","SEMIMAJOR_AXIS":"6925.360","ARG_OF_PERICENTER":"43.1918","OBJECT_TYPE":"PAYLOAD","REV_AT_EPOCH":"9325","RCS_SIZE":"LARGE","PERIAPSIS":"545.840","MEAN_MOTION":"15.06396365","LAUNCH_DATE":"2020-09-03","APOAPSIS":"548.609","NORAD_CAT_ID":"46334","ELEMENT_SET_NO":"999","REF_FRAME":"TEME","CLASSIFICATION_TYPE":"U","GP_ID":"202923966","INCLINATION":"53.0531","RA_OF_ASC_NODE":"171.1271","SITE":"AFETR","OBJECT_NAME":"STARLINK-1725","DECAY_DATE":null,"TLE_LINE2":"2 46334  53.0531 171.1271 0001999  43.1918 316.9228 15.06396365 93257","MEAN_MOTION_DDOT":"0.0000000000000","MEAN_ELEMENT_THEORY":"SGP4"},{"SEMIMAJOR_AXIS":"6925.360","TLE_LINE1":"1 46335U 20062L   22127.65565760 -.00000051  00000-0  15455-4 0  9996","BSTAR":"0.00001545500000","EPHEMERIS_TYPE":"0","RCS_SIZE":"LARGE","REV_AT_EPOCH":"9317","OBJECT_TYPE":"PAYLOAD","ARG_OF_PERICENTER":"46.3035","PERIOD":"95.592","TIME_SYSTEM":"UTC","EPOCH":"2022-05-07T15:44:08.816640","OBJECT_ID":"2020-062L","FILE":"3434150","CENTER_NAME":"EARTH","MEAN_ANOMALY":"313.8113","ECCENTRICITY":"0.00019210","COUNTRY_CODE":"US","MEAN_MOTION_DOT":"-0.00000051","RA_OF_ASC_NODE":"190.6036","INCLINATION":"53.0558","MEAN_MOTION_DDOT":"0.0000000000000","MEAN_ELEMENT_THEORY":"SGP4","TLE_LINE2":"2 46335  53.0558 190.6036 0001921  46.3035 313.8113 15.06396287 93175","OBJECT_NAME":"STARLINK-1727","DECAY_DATE":null,"SITE":"AFETR","APOAPSIS":"548.555","LAUNCH_DATE":"2020-09-03","MEAN_MOTION":"15.06396287","PERIAPSIS":"545.895","GP_ID":"202932942","CLASSIFICATION_TYPE":"U","REF_FRAME":"TEME","ELEMENT_SET_NO":"999","NORAD_CAT_ID":"46335"},{"MEAN_MOTION_DOT":"-0.00000285","COUNTRY_CODE":"US","ECCENTRICITY":"0.00018440","MEAN_ANOMALY":"314.9981","CENTER_NAME":"EARTH","OBJECT_ID":"2020-062M","FILE":"3433971","EPOCH":"2022-05-07T12:19:48.012960","TIME_SYSTEM":"UTC","PERIOD":"95.593","ARG_OF_PERICENTER":"45.1158","OBJECT_TYPE":"PAYLOAD","REV_AT_EPOCH":"9324","RCS_SIZE":"LARGE","EPHEMERIS_TYPE":"0","BSTAR":"-0.00000020980000","TLE_LINE1":"1 46336U 20062M   22127.51375015 -.00000285  00000-0 -20980-6 0  9995","SEMIMAJOR_AXIS":"6925.367","NORAD_CAT_ID":"46336","ELEMENT_SET_NO":"999","REF_FRAME":"TEME","CLASSIFICATION_TYPE":"U","GP_ID":"202922966","PERIAPSIS":"545.955","MEAN_MOTION":"15.06393859","LAUNCH_DATE":"2020-09-03","APOAPSIS":"548.509","SITE":"AFETR","OBJECT_NAME":"STARLINK-1738","DECAY_DATE":null,"TLE_LINE2":"2 46336  53.0526 171.2354 0001844  45.1158 314.9981 15.06393859 93241","MEAN_ELEMENT_THEORY":"SGP4","MEAN_MOTION_DDOT":"0.0000000000000","INCLINATION":"53.0526","RA_OF_ASC_NODE":"171.2354"},{"TIME_SYSTEM":"UTC","EPOCH":"2022-05-07T14:16:34.154400","PERIOD":"95.592","COUNTRY_CODE":"US","ECCENTRICITY":"0.00020110","MEAN_ANOMALY":"318.8639","MEAN_MOTION_DOT":"-0.00000999","CENTER_NAME":"EARTH","FILE":"3434150","OBJECT_ID":"2020-062N","TLE_LINE1":"1 46337U 20062N   22127.59483975 -.00000999  00000-0 -48199-4 0  9991","SEMIMAJOR_AXIS":"6925.363","EPHEMERIS_TYPE":"0","BSTAR":"-0.00004819900000","OBJECT_TYPE":"PAYLOAD","ARG_OF_PERICENTER":"41.2502","REV_AT_EPOCH":"9344","RCS_SIZE":"LARGE","PERIAPSIS":"545.836","APOAPSIS":"548.621","MEAN_MOTION":"15.06395144","LAUNCH_DATE":"2020-09-03","NORAD_CAT_ID":"46337","ELEMENT_SET_NO":"999","GP_ID":"202932438","CLASSIFICATION_TYPE":"U","REF_FRAME":"TEME","RA_OF_ASC_NODE":"170.8682","INCLINATION":"53.0557","SITE":"AFETR","TLE_LINE2":"2 46337  53.0557 170.8682 0002011  41.2502 318.8639 15.06395144 93446","MEAN_MOTION_DDOT":"0.0000000000000","MEAN_ELEMENT_THEORY":"SGP4","OBJECT_NAME":"STARLINK-1750","DECAY_DATE":null},{"RA_OF_ASC_NODE":"191.5378","INCLINATION":"53.0566","TLE_LINE2":"2 46338  53.0566 191.5378 0001710  51.7667 308.3476 15.06390764 92953","MEAN_MOTION_DDOT":"0.0000000000000","MEAN_ELEMENT_THEORY":"SGP4","OBJECT_NAME":"STARLINK-1752","DECAY_DATE":null,"SITE":"AFETR","APOAPSIS":"548.426","MEAN_MOTION":"15.06390764","LAUNCH_DATE":"2020-09-03","PERIAPSIS":"546.058","GP_ID":"202924466","CLASSIFICATION_TYPE":"U","REF_FRAME":"TEME","NORAD_CAT_ID":"46338","ELEMENT_SET_NO":"999","TLE_LINE1":"1 46338U 20062P   22127.44555965  .00000318  00000-0  40261-4 0  9990","SEMIMAJOR_AXIS":"6925.377","EPHEMERIS_TYPE":"0","BSTAR":"0.00004026100000","REV_AT_EPOCH":"9295","RCS_SIZE":"LARGE","OBJECT_TYPE":"PAYLOAD","ARG_OF_PERICENTER":"51.7667","PERIOD":"95.593","TIME_SYSTEM":"UTC","EPOCH":"2022-05-07T10:41:36.353760","CENTER_NAME":"EARTH","OBJECT_ID":"2020-062P","FILE":"3433971","COUNTRY_CODE":"US","MEAN_ANOMALY":"308.3476","ECCENTRICITY":"0.00017100","MEAN_MOTION_DOT":"0.00000318"}];
